IRIDIUM 159             
1 43578U 18061K   23298.88900856  .00000110  00000+0  32374-4 0  9995
2 43578  86.3918 100.1520 0002097  88.1808 271.9627 14.34217502275023
IRIDIUM 180             
1 43922U 19002A   23297.56289980  .00000396  00000+0  13436-3 0  9999
2 43922  86.4012  37.5583 0002405  94.3987 265.7484 14.34220138250444
IRIDIUM 176             
1 43923U 19002B   23298.33772719  .00001552  00000+0  24215-3 0  9995
2 43923  86.6138  37.2675 0002354  92.0678 268.0809 14.72273751257142
IRIDIUM 168             
1 43924U 19002C   23297.55655850  .00000416  00000+0  14159-3 0  9999
2 43924  86.4013  37.6107 0002344  92.2626 267.8839 14.34220450250421
IRIDIUM 173             
1 43925U 19002D   23297.54387522  .00000419  00000+0  14238-3 0  9998
2 43925  86.4009  37.5445 0002292  91.9334 268.2124 14.34219955250403
IRIDIUM 169             
1 43926U 19002E   23298.88764821  .00000540  00000+0  17017-3 0  9991
2 43926  86.4214  68.5967 0001182 305.3298  54.7789 14.38616356251443
IRIDIUM 172             
1 43927U 19002F   23298.37474884  .00000402  00000+0  13644-3 0  9992
2 43927  86.4007  37.2025 0002243  92.5251 267.6202 14.34221210250536
IRIDIUM 175             
1 43928U 19002G   23298.33161653  .00001518  00000+0  23664-3 0  9998
2 43928  86.1561  23.7535 0002194  93.1856 266.9611 14.72265446257138
